[{"OBJECT_NAME":"STARLINK-30594","OBJECT_ID":"2023-161A","EPOCH":"2025-07-28T01:58:39.819648","MEAN_MOTION":15.30188946,"ECCENTRICITY":9.49e-5,"INCLINATION":53.1585,"RA_OF_ASC_NODE":128.7825,"ARG_OF_PERICENTER":102.024,"MEAN_ANOMALY":258.0867,"EPHEMERIS_TYPE":0,"CLASSIFICATION_TYPE":"U","NORAD_CAT_ID":58097,"ELEMENT_SET_NO":999,"REV_AT_EPOCH":9990,"BSTAR":-1.3135e-5,"MEAN_MOTION_DOT":-7.48e-6,"MEAN_MOTION_DDOT":0},{"OBJECT_NAME":"STARLINK-30614","OBJECT_ID":"2023-161B","EPOCH":"2025-07-28T03:28:09.297120","MEAN_MOTION":15.30192654,"ECCENTRICITY":0.0001226,"INCLINATION":53.1596,"RA_OF_ASC_NODE":128.4605,"ARG_OF_PERICENTER":84.856,"MEAN_ANOMALY":275.2581,"EPHEMERIS_TYPE":0,"CLASSIFICATION_TYPE":"U","NORAD_CAT_ID":58098,"ELEMENT_SET_NO":999,"REV_AT_EPOCH":9991,"BSTAR":-1.1002e-5,"MEAN_MOTION_DOT":-6.85e-6,"MEAN_MOTION_DDOT":0},{"OBJECT_NAME":"STARLINK-30607","OBJECT_ID":"2023-161C","EPOCH":"2025-07-28T03:32:50.586144","MEAN_MOTION":15.30191034,"ECCENTRICITY":0.0001177,"INCLINATION":53.1593,"RA_OF_ASC_NODE":118.4864,"ARG_OF_PERICENTER":80.7323,"MEAN_ANOMALY":279.381,"EPHEMERIS_TYPE":0,"CLASSIFICATION_TYPE":"U","NORAD_CAT_ID":58099,"ELEMENT_SET_NO":999,"REV_AT_EPOCH":9978,"BSTAR":2.438e-5,"MEAN_MOTION_DOT":3.63e-6,"MEAN_MOTION_DDOT":0},{"OBJECT_NAME":"STARLINK-30600","OBJECT_ID":"2023-161D","EPOCH":"2025-07-28T03:41:50.155008","MEAN_MOTION":15.30183494,"ECCENTRICITY":9.86e-5,"INCLINATION":53.1595,"RA_OF_ASC_NODE":128.5086,"ARG_OF_PERICENTER":101.1175,"MEAN_ANOMALY":258.9937,"EPHEMERIS_TYPE":0,"CLASSIFICATION_TYPE":"U","NORAD_CAT_ID":58100,"ELEMENT_SET_NO":999,"REV_AT_EPOCH":9991,"BSTAR":-3.4698e-5,"MEAN_MOTION_DOT":-1.386e-5,"MEAN_MOTION_DDOT":0},{"OBJECT_NAME":"STARLINK-30605","OBJECT_ID":"2023-161E","EPOCH":"2025-07-28T04:56:07.836000","MEAN_MOTION":15.30191586,"ECCENTRICITY":0.000119,"INCLINATION":53.1597,"RA_OF_ASC_NODE":128.1313,"ARG_OF_PERICENTER":86.4173,"MEAN_ANOMALY":273.6964,"EPHEMERIS_TYPE":0,"CLASSIFICATION_TYPE":"U","NORAD_CAT_ID":58101,"ELEMENT_SET_NO":999,"REV_AT_EPOCH":9992,"BSTAR":2.3026e-5,"MEAN_MOTION_DOT":3.23e-6,"MEAN_MOTION_DDOT":0},{"OBJECT_NAME":"STARLINK-30592","OBJECT_ID":"2023-161F","EPOCH":"2025-07-28T01:43:27.988608","MEAN_MOTION":15.30190127,"ECCENTRICITY":0.0001091,"INCLINATION":53.159,"RA_OF_ASC_NODE":128.7184,"ARG_OF_PERICENTER":87.009,"MEAN_ANOMALY":273.1036,"EPHEMERIS_TYPE":0,"CLASSIFICATION_TYPE":"U","NORAD_CAT_ID":58102,"ELEMENT_SET_NO":999,"REV_AT_EPOCH":9990,"BSTAR":6.3361e-6,"MEAN_MOTION_DOT":-1.71e-6,"MEAN_MOTION_DDOT":0},{"OBJECT_NAME":"STARLINK-30589","OBJECT_ID":"2023-161G","EPOCH":"2025-07-28T04:15:11.232576","MEAN_MOTION":15.30210205,"ECCENTRICITY":0.0001234,"INCLINATION":53.1592,"RA_OF_ASC_NODE":128.4641,"ARG_OF_PERICENTER":93.7031,"MEAN_ANOMALY":266.4111,"EPHEMERIS_TYPE":0,"CLASSIFICATION_TYPE":"U","NORAD_CAT_ID":58103,"ELEMENT_SET_NO":999,"REV_AT_EPOCH":9991,"BSTAR":9.0755e-5,"MEAN_MOTION_DOT":2.33e-5,"MEAN_MOTION_DDOT":0},{"OBJECT_NAME":"STARLINK-30617","OBJECT_ID":"2023-161H","EPOCH":"2025-07-27T04:48:58.448736","MEAN_MOTION":15.30195733,"ECCENTRICITY":0.0001272,"INCLINATION":53.1595,"RA_OF_ASC_NODE":133.0377,"ARG_OF_PERICENTER":85.0964,"MEAN_ANOMALY":275.0182,"EPHEMERIS_TYPE":0,"CLASSIFICATION_TYPE":"U","NORAD_CAT_ID":58104,"ELEMENT_SET_NO":999,"REV_AT_EPOCH":9989,"BSTAR":2.0218e-5,"MEAN_MOTION_DOT":2.4e-6,"MEAN_MOTION_DDOT":0},{"OBJECT_NAME":"STARLINK-30616","OBJECT_ID":"2023-161J","EPOCH":"2025-07-28T03:16:41.126304","MEAN_MOTION":15.30187193,"ECCENTRICITY":0.0001339,"INCLINATION":53.16,"RA_OF_ASC_NODE":115.4617,"ARG_OF_PERICENTER":79.3259,"MEAN_ANOMALY":280.7893,"EPHEMERIS_TYPE":0,"CLASSIFICATION_TYPE":"U","NORAD_CAT_ID":58105,"ELEMENT_SET_NO":999,"REV_AT_EPOCH":10009,"BSTAR":-6.1398e-6,"MEAN_MOTION_DOT":-5.41e-6,"MEAN_MOTION_DDOT":0},{"OBJECT_NAME":"STARLINK-30612","OBJECT_ID":"2023-161K","EPOCH":"2025-07-28T03:27:17.749152","MEAN_MOTION":15.30210893,"ECCENTRICITY":0.0001448,"INCLINATION":53.1591,"RA_OF_ASC_NODE":115.5175,"ARG_OF_PERICENTER":83.342,"MEAN_ANOMALY":276.7746,"EPHEMERIS_TYPE":0,"CLASSIFICATION_TYPE":"U","NORAD_CAT_ID":58106,"ELEMENT_SET_NO":999,"REV_AT_EPOCH":9994,"BSTAR":0.00012486,"MEAN_MOTION_DOT":3.342e-5,"MEAN_MOTION_DDOT":0},{"OBJECT_NAME":"STARLINK-30421","OBJECT_ID":"2023-161L","EPOCH":"2025-07-27T21:18:41.644800","MEAN_MOTION":15.30182389,"ECCENTRICITY":0.000139,"INCLINATION":53.1593,"RA_OF_ASC_NODE":116.7285,"ARG_OF_PERICENTER":94.3992,"MEAN_ANOMALY":265.7168,"EPHEMERIS_TYPE":0,"CLASSIFICATION_TYPE":"U","NORAD_CAT_ID":58107,"ELEMENT_SET_NO":999,"REV_AT_EPOCH":10018,"BSTAR":0.00014057,"MEAN_MOTION_DOT":3.804e-5,"MEAN_MOTION_DDOT":0},{"OBJECT_NAME":"STARLINK-30611","OBJECT_ID":"2023-161M","EPOCH":"2025-07-28T00:57:11.798496","MEAN_MOTION":15.30189262,"ECCENTRICITY":0.0001032,"INCLINATION":53.1587,"RA_OF_ASC_NODE":116.2342,"ARG_OF_PERICENTER":86.3714,"MEAN_ANOMALY":273.7404,"EPHEMERIS_TYPE":0,"CLASSIFICATION_TYPE":"U","NORAD_CAT_ID":58108,"ELEMENT_SET_NO":999,"REV_AT_EPOCH":10007,"BSTAR":3.3169e-6,"MEAN_MOTION_DOT":-2.61e-6,"MEAN_MOTION_DDOT":0},{"OBJECT_NAME":"STARLINK-30606","OBJECT_ID":"2023-161N","EPOCH":"2025-07-28T03:37:16.360320","MEAN_MOTION":15.30188212,"ECCENTRICITY":0.0001082,"INCLINATION":53.1596,"RA_OF_ASC_NODE":128.4964,"ARG_OF_PERICENTER":95.0263,"MEAN_ANOMALY":265.0861,"EPHEMERIS_TYPE":0,"CLASSIFICATION_TYPE":"U","NORAD_CAT_ID":58109,"ELEMENT_SET_NO":999,"REV_AT_EPOCH":9991,"BSTAR":-1.7824e-5,"MEAN_MOTION_DOT":-8.87e-6,"MEAN_MOTION_DDOT":0},{"OBJECT_NAME":"STARLINK-30596","OBJECT_ID":"2023-161P","EPOCH":"2025-07-28T04:37:53.642208","MEAN_MOTION":15.30195544,"ECCENTRICITY":0.0001326,"INCLINATION":53.1604,"RA_OF_ASC_NODE":128.0509,"ARG_OF_PERICENTER":76.8093,"MEAN_ANOMALY":283.3055,"EPHEMERIS_TYPE":0,"CLASSIFICATION_TYPE":"U","NORAD_CAT_ID":58110,"ELEMENT_SET_NO":999,"REV_AT_EPOCH":9992,"BSTAR":1.5127e-5,"MEAN_MOTION_DOT":8.9e-7,"MEAN_MOTION_DDOT":0},{"OBJECT_NAME":"STARLINK-30595","OBJECT_ID":"2023-161Q","EPOCH":"2025-07-27T12:14:58.634304","MEAN_MOTION":15.30187242,"ECCENTRICITY":0.0001462,"INCLINATION":53.1617,"RA_OF_ASC_NODE":131.6122,"ARG_OF_PERICENTER":106.4854,"MEAN_ANOMALY":253.6308,"EPHEMERIS_TYPE":0,"CLASSIFICATION_TYPE":"U","NORAD_CAT_ID":58111,"ELEMENT_SET_NO":999,"REV_AT_EPOCH":9994,"BSTAR":-3.3005e-5,"MEAN_MOTION_DOT":-1.336e-5,"MEAN_MOTION_DDOT":0},{"OBJECT_NAME":"STARLINK-30593","OBJECT_ID":"2023-161R","EPOCH":"2025-07-27T18:26:37.756320","MEAN_MOTION":15.30189168,"ECCENTRICITY":0.0001217,"INCLINATION":53.1625,"RA_OF_ASC_NODE":130.3729,"ARG_OF_PERICENTER":101.2942,"MEAN_ANOMALY":258.8195,"EPHEMERIS_TYPE":0,"CLASSIFICATION_TYPE":"U","NORAD_CAT_ID":58112,"ELEMENT_SET_NO":999,"REV_AT_EPOCH":9998,"BSTAR":-5.958e-6,"MEAN_MOTION_DOT":-5.35e-6,"MEAN_MOTION_DDOT":0},{"OBJECT_NAME":"STARLINK-30353","OBJECT_ID":"2023-161S","EPOCH":"2025-07-28T04:04:38.111520","MEAN_MOTION":15.30175762,"ECCENTRICITY":0.0001802,"INCLINATION":53.16,"RA_OF_ASC_NODE":128.6181,"ARG_OF_PERICENTER":67.1383,"MEAN_ANOMALY":292.9807,"EPHEMERIS_TYPE":0,"CLASSIFICATION_TYPE":"U","NORAD_CAT_ID":58113,"ELEMENT_SET_NO":999,"REV_AT_EPOCH":9991,"BSTAR":4.8026e-5,"MEAN_MOTION_DOT":1.062e-5,"MEAN_MOTION_DDOT":0}]
