STARLINK-30594          
1 58097U 23161A   25209.08240532 -.00000748  00000+0 -13135-4 0  9991
2 58097  53.1585 128.7825 0000949 102.0240 258.0867 15.30188946 99900
STARLINK-30614          
1 58098U 23161B   25209.14455205 -.00000685  00000+0 -11002-4 0  9995
2 58098  53.1596 128.4605 0001226  84.8560 275.2581 15.30192654 99913
STARLINK-30607          
1 58099U 23161C   25209.14780771  .00000363  00000+0  24380-4 0  9999
2 58099  53.1593 118.4864 0001177  80.7323 279.3810 15.30191034 99780
STARLINK-30600          
1 58100U 23161D   25209.15405272 -.00001386  00000+0 -34698-4 0  9994
2 58100  53.1595 128.5086 0000986 101.1175 258.9937 15.30183494 99912
STARLINK-30605          
1 58101U 23161E   25209.20564625  .00000323  00000+0  23026-4 0  9990
2 58101  53.1597 128.1313 0001190  86.4173 273.6964 15.30191586 99921
STARLINK-30592          
1 58102U 23161F   25209.07185172 -.00000171  00000+0  63361-5 0  9991
2 58102  53.1590 128.7184 0001091  87.0090 273.1036 15.30190127 99905
STARLINK-30589          
1 58103U 23161G   25209.17721334  .00002330  00000+0  90755-4 0  9993
2 58103  53.1592 128.4641 0001234  93.7031 266.4111 15.30210205 99911
STARLINK-30617          
1 58104U 23161H   25208.20067649  .00000240  00000+0  20218-4 0  9994
2 58104  53.1595 133.0377 0001272  85.0964 275.0182 15.30195733 99893
STARLINK-30616          
1 58105U 23161J   25209.13658711 -.00000541  00000+0 -61398-5 0  9995
2 58105  53.1600 115.4617 0001339  79.3259 280.7893 15.30187193100097
STARLINK-30612          
1 58106U 23161K   25209.14395543  .00003342  00000+0  12486-3 0  9990
2 58106  53.1591 115.5175 0001448  83.3420 276.7746 15.30210893 99940
STARLINK-30421          
1 58107U 23161L   25208.88798200  .00003804  00000+0  14057-3 0  9997
2 58107  53.1593 116.7285 0001390  94.3992 265.7168 15.30182389100183
STARLINK-30611          
1 58108U 23161M   25209.03971989 -.00000261  00000+0  33169-5 0  9995
2 58108  53.1587 116.2342 0001032  86.3714 273.7404 15.30189262100079
STARLINK-30606          
1 58109U 23161N   25209.15088380 -.00000887  00000+0 -17824-4 0  9997
2 58109  53.1596 128.4964 0001082  95.0263 265.0861 15.30188212 99911
STARLINK-30596          
1 58110U 23161P   25209.19298197  .00000089  00000+0  15127-4 0  9998
2 58110  53.1604 128.0509 0001326  76.8093 283.3055 15.30195544 99928
STARLINK-30595          
1 58111U 23161Q   25208.51040086 -.00001336  00000+0 -33005-4 0  9999
2 58111  53.1617 131.6122 0001462 106.4854 253.6308 15.30187242 99949
STARLINK-30593          
1 58112U 23161R   25208.76849255 -.00000535  00000+0 -59580-5 0  9999
2 58112  53.1625 130.3729 0001217 101.2942 258.8195 15.30189168 99981
STARLINK-30353          
1 58113U 23161S   25209.16988555  .00001062  00000+0  48026-4 0  9998
2 58113  53.1600 128.6181 0001802  67.1383 292.9807 15.30175762 99913
